C/2011 F1 (LINEAR),e,56.6495,85.0720,192.4831,2113,0.0000101,0.99914047,0.0000,01/07.8929/2013,2000,g  5.0,4.0
# From MPC 79866
P/2011 FR143 (Lemmon),e,16.0180,190.9250,350.0026,6.836792,0.0551348,0.45407374,97.7653,01/18.0/2016,2000,g 14.0,2.0
# From MPC 80044
C/2011 G1 (McNaught),h,09/15.9184/2011,162.2391,152.9822,355.0239,1.000696,2.162585,2000,12.0,4.0
# From MPC 97494
C/2011 J2 (LINEAR),h,12/25.5989/2013,122.8051,163.9435,85.3291,1.001360,3.443794,2000,5.5,3.6
# From MPEC 2015-K84
C/2011 J2-B (LINEAR),h,12/25.4759/2013,122.8078,163.9399,85.2865,1.002121,3.442995,2000,9.0,3.6
# From unp
C/2011 J2-C (LINEAR),h,12/25.5685/2013,122.8031,163.9451,85.3037,1.002157,3.442832,2000,11.0,3.6
# From MPC 75713
C/2011 J3 (LINEAR),e,114.4489,21.5762,27.8551,19.64757,0.0113173,0.92626793,20.5961,01/18.0/2016,2000,g 15.0,4.0
# From MPC 82317
P/2011 JB15 (Spacewatch-Boattini),e,19.1574,153.7363,110.5789,7.343912,0.0495237,0.31783259,72.3152,01/18.0/2016,2000,g  9.0,4.0
# From MPC 75516
C/2011 K1 (Schwartz-Holvorcem),e,122.5999,70.6609,166.8882,3774,0.0000043,0.99910693,0.0000,04/20.4089/2011,2000,g 12.0,4.0
# From MPC 97494
C/2011 KP36 (Spacewatch),e,18.9867,173.4004,180.6075,38.39515,0.0041428,0.87281625,359.4615,01/18.0/2016,2000,g  4.5,4.0
# From MPC 83518
C/2011 L1 (McNaught),e,65.4946,252.2564,294.3917,11.02615,0.0269196,0.79733912,49.9596,01/18.0/2016,2000,g 11.0,4.0
# From MPC 78588
C/2011 L2 (McNaught),e,104.3013,131.3699,256.9893,7994,0.0000014,0.99975646,0.0000,10/30.4430/2011,2000,g 12.5,4.0
# From MPC 77405
C/2011 L3 (McNaught),e,87.1348,307.7558,27.6397,1043,0.0000293,0.99815461,0.0000,08/08.8025/2011,2000,g 12.5,4.0
# From MPC 94278
C/2011 L4 (PANSTARRS),h,03/09.9964/2013,84.0719,65.8222,333.6801,1.000020,0.302629,2000,5.5,4.0
# From MPC 82718
C/2011 L6 (Boattini),e,171.4430,214.4322,331.3484,20640,0.0000003,0.99967129,0.0000,01/18.3454/2011,2000,g  9.0,4.0
# From MPC 75714
C/2011 M1 (LINEAR),h,09/06.7589/2011,70.1586,324.6994,119.7620,1.002467,0.903072,2000,12.0,4.0
# From MPC 87913
P/2011 N1 (ASH),e,35.6874,77.6481,330.6511,6.262834,0.0628851,0.54407196,83.6165,01/18.0/2016,2000,g 11.5,4.0
# From MPC 75714
P/2011 NO1 (Elenin),e,15.2545,296.0655,263.5549,5.519515,0.0760068,0.77606444,138.4707,01/18.0/2016,2000,g 15.0,4.0
# From MPC 76569
C/2011 N2 (McNaught),e,33.6986,273.9560,356.9262,1258,0.0000221,0.99796942,0.0000,10/18.7162/2011,2000,g 11.5,4.0
# From MPC 87476
C/2011 O1 (LINEAR),e,76.5290,89.7994,232.3463,709.8870,0.0000521,0.99451934,0.0000,08/17.7607/2012,2000,g  7.0,4.0
# From MPC 78186
P/2011 P1 (McNaught),e,5.6449,4.3071,349.2165,7.496018,0.0480240,0.32418626,96.7253,01/18.0/2016,2000,g  9.0,4.0
# From MPC 84931
C/2011 P2 (PANSTARRS),e,9.0037,203.9822,75.9291,9.713484,0.0325568,0.36874362,63.7455,01/18.0/2016,2000,g  8.5,4.0
# From MPC 79867
C/2011 Q1 (PANSTARRS),e,94.9085,142.2378,135.8475,4110,0.0000037,0.99835248,0.0000,06/29.2780/2011,2000,g  9.5,4.0
# From MPC 79342
C/2011 Q2 (McNaught),e,37.1712,287.1253,34.8840,889.7000,0.0000371,0.99847578,0.0000,01/17.8097/2012,2000,g 10.0,4.0
# From MPC 77806
P/2011 Q3 (McNaught),e,6.0478,32.1049,311.1028,4.966936,0.0890372,0.53289716,145.2617,01/18.0/2016,2000,g 13.5,4.0
# From MPC 79342
C/2011 Q4 (SWAN),e,147.8707,252.0645,1.8571,41.16909,0.0037312,0.97287009,0.0000,09/19.1860/2011,2000,g 12.5,4.0
# From MPC 88325
C/2011 R1 (McNaught),e,116.1674,221.3478,308.7870,32132,0.0000002,0.99993528,0.0000,10/19.0636/2012,2000,g  6.5,4.0
# From MPC 90269
P/2011 R3 (Novichonok-Gerke),e,19.2515,190.3869,224.2923,4.816382,0.0932444,0.26328434,129.8416,01/18.0/2016,2000,g 11.0,4.0
# From MPC 97494
P/2011 S1 (Gibbs),e,2.6819,218.9142,193.6017,8.631491,0.0388665,0.20136433,19.7386,01/18.0/2016,2000,g  8.0,4.0
# From MPC 80897
C/2011 S2 (Kowalski),e,17.5773,288.0406,192.3120,16.44514,0.0147791,0.93198698,22.8266,01/18.0/2016,2000,g 15.5,4.0
# From MPC 78186
P/2011 U1 (PANSTARRS),e,15.2440,134.9794,353.3600,4.052486,0.1208153,0.41766565,157.7625,01/18.0/2016,2000,g 14.5,4.0
# From MPC 93583
P/2011 U2 (Bressi),e,9.6966,265.4861,141.6858,5.193253,0.0832808,0.08572228,127.1642,01/18.0/2016,2000,g 10.0,4.0
# From MPC 78186
C/2011 U3 (PANSTARRS),e,116.7283,228.2471,287.7071,2831,0.0000065,0.99962212,0.0000,06/03.5130/2012,2000,g 14.0,4.0
# From MPC 79022
P/2011 UA134 (Spacewatch-PANSTARRS),e,10.5093,40.6451,32.5349,5.593581,0.0745022,0.63105200,112.0488,01/18.0/2016,2000,g 17.5,4.0
# From MPC 88325
C/2011 UF305 (LINEAR),e,94.0021,297.4778,121.9988,3621,0.0000045,0.99940849,0.0000,07/21.4016/2012,2000,g  9.0,4.0
# From MPC 77406
P/2011 V1 (Boattini),e,7.2784,48.5146,268.4849,3.822064,0.1319037,0.56122023,230.4103,01/18.0/2016,2000,g 15.5,4.0
# From MPC 79022
P/2011 VJ5 (Lemmon),e,3.9751,169.9207,315.2746,3.404344,0.1569112,0.55738456,235.4362,01/18.0/2016,2000,g 17.5,4.0
# From MPC 82718
P/2011 W1 (PANSTARRS),e,3.7172,161.8385,282.7812,4.656607,0.0980844,0.28667929,142.8634,01/18.0/2016,2000,g 11.5,4.0
# From MPC 80897
P/2011 W2 (Rinner),e,13.7604,231.9923,221.3002,3.804960,0.1327941,0.39314026,203.6567,01/18.0/2016,2000,g 13.0,4.0
# From MPC 77807
C/2011 W3 (Lovejoy),e,134.6793,326.9878,54.0058,71.20608,0.0016403,0.99991743,0.0000,12/14.9629/2011,2000,g 14.5,4.0
# From MPC 79342
P/2011 Y2 (Boattini),e,6.3553,309.6953,131.7221,6.235917,0.0632927,0.71162523,88.4889,01/18.0/2016,2000,g 15.0,4.0
# From MPC 79342
C/2011 Y3 (Boattini),e,26.5179,84.8347,340.7062,11.79932,0.0243175,0.70279904,39.1701,01/18.0/2016,2000,g  8.0,4.0
# From MPC 93583
C/2012 A1 (PANSTARRS),h,12/04.1759/2013,120.9198,277.9855,192.0699,1.001740,7.604983,2000,6.0,4.0
# From MPC 91611
C/2012 A2 (LINEAR),e,125.8999,191.4226,101.7395,1153,0.0000252,0.99693117,0.0000,11/05.6047/2012,2000,g  8.5,4.0
# From MPC 80898
P/2012 A3 (SOHO),e,11.4573,176.4039,217.7380,2.570035,0.2392189,0.77543631,347.6822,01/18.0/2016,2000,g 17.0,4.0
# From MPC 94669
P/2012 B1 (PANSTARRS),e,7.6231,36.1670,162.3032,6.507203,0.0593762,0.41201275,53.9191,01/18.0/2016,2000,g  9.0,4.0
# From MPC 82719
C/2012 B3 (La Sagra),e,106.9773,252.9852,50.7540,3987,0.0000039,0.99911169,0.0000,12/05.8661/2011,2000,g 10.0,4.0
# From MPC 83519
C/2012 BJ98 (Lemmon),e,2.6373,124.0244,72.9815,17.19715,0.0138204,0.87466066,16.7788,01/18.0/2016,2000,g 12.5,4.0
# From MPC 89309
C/2012 C1 (McNaught),e,96.2677,300.6320,279.8991,2724,0.0000069,0.99822464,0.0000,02/04.9688/2013,2000,g  7.5,4.0
# From MPC 80898
C/2012 C2 (Bruenjes),h,03/13.1846/2012,162.8002,118.0121,62.6609,1.002948,0.799515,2000,17.0,4.0
# From MPC 78590
P/2012 C3 (PANSTARRS),e,9.0920,135.3677,344.9542,9.748681,0.0323806,0.63011148,359.9758,10/06.0/2011,2000,g 13.0,4.0
# From MPC 84022
C/2012 CH17 (MOSS),e,27.7471,125.9563,137.8931,2263,0.0000092,0.99942936,0.0000,09/28.4461/2012,2000,g 11.0,4.0
# From MPC 84022
C/2012 E1 (Hill),e,122.5557,286.3170,48.7870,1154,0.0000251,0.99350078,0.0000,07/01.1406/2011,2000,g  6.5,4.0
# From MPC 79023
C/2012 E2 (SWAN),p,03/15.0314/2012,144.2218,83.3435,0.006952,7.7078,2000,10.0,4.0
# From MPC 82318
C/2012 E3 (PANSTARRS),e,105.5706,5.5004,103.4695,210.3487,0.0003231,0.98179373,0.0000,05/11.5040/2011,2000,g 10.0,4.0
# From MPC 79868
C/2012 F1 (Gibbs),e,159.5524,130.2919,300.7977,71.79453,0.0016202,0.96434550,2.3174,01/18.0/2016,2000,g 14.0,4.0
# From MPC 84931
P/2012 F2 (PANSTARRS),e,14.7325,227.0959,33.1045,6.322725,0.0619937,0.54240935,62.8067,01/18.0/2016,2000,g 12.0,4.0
# From MPC 97494
C/2012 F3 (PANSTARRS),h,04/06.6845/2015,11.3552,164.6114,104.0203,1.002206,3.456857,2000,6.5,4.0
# From MPC 97494
P/2012 F5 (Gibbs),e,9.7401,216.8380,178.1668,3.003415,0.1893569,0.04098787,40.8224,01/18.0/2016,2000,g 12.0,4.0
# From MPC 90766
C/2012 F6 (Lemmon),e,82.6133,332.7399,304.8904,424.3900,0.0001127,0.99828402,0.0000,03/24.5971/2013,2000,g 10.0,4.0
# From MPC 79344
P/2012 G1 (PANSTARRS),e,11.6925,282.5440,286.1149,4.172871,0.1156250,0.38072240,359.9500,06/01.0/2012,2000,g 15.0,4.0
# From MPC 80046
C/2012 H2 (McNaught),e,92.7934,184.0622,295.9313,16.10329,0.0152522,0.89314841,20.6668,01/18.0/2016,2000,g 15.5,4.0
# From MPC 89726
C/2012 J1 (Catalina),h,12/06.7249/2012,34.0914,235.0974,147.4385,1.001903,3.162927,2000,8.0,4.0
# From MPC 97494
C/2012 K1 (PANSTARRS),h,08/27.6959/2014,142.4250,317.7426,203.1247,1.000363,1.054843,2000,5.6,3.2
# From MPC 80898
P/2012 K3 (Gibbs),e,13.2003,125.8755,172.3573,3.619185,0.1431489,0.42417190,172.6835,01/18.0/2016,2000,g 15.0,4.0
# From MPC 88326
C/2012 K5 (LINEAR),e,92.8408,279.1140,139.3490,689.7425,0.0000544,0.99833999,0.0000,11/28.3995/2012,2000,g 12.0,4.0
# From MPC 94278
C/2012 K6 (McNaught),e,135.2210,206.9149,338.8523,1518,0.0000167,0.99778934,0.0000,05/20.9664/2013,2000,g  8.5,4.0
# From MPC 95731
C/2012 K8 (Lemmon),h,08/19.4052/2014,106.1128,312.8046,75.8647,1.000320,6.463617,2000,6.0,4.0
# From MPC 88326
C/2012 L1 (LINEAR),e,87.2341,271.8077,140.2406,617.0301,0.0000643,0.99633156,0.0000,12/24.9164/2012,2000,g 10.5,4.0
# From MPC 88326
C/2012 L2 (LINEAR),e,70.9485,270.3213,205.8457,637.3484,0.0000613,0.99762862,0.0000,05/09.2989/2013,2000,g 10.0,4.0
# From MPC 84023
C/2012 L3 (LINEAR),e,134.1530,53.4555,106.9445,309.2802,0.0001812,0.99017065,0.0000,06/11.5935/2012,2000,g 13.0,4.0
# From MPC 96864
C/2012 LP26 (Palomar),e,25.3801,153.9871,145.1467,11890,0.0000008,0.99945032,0.0000,08/16.4983/2015,2000,g  6.5,4.0
# From MPC 88326
P/2012 NJ (La Sagra),e,84.3818,315.7665,338.3091,8.462134,0.0400391,0.84761846,52.6315,01/18.0/2016,2000,g 14.5,4.0
# From MPC 84625
C/2012 OP (Siding Spring),e,114.8268,267.3359,351.3279,737.5868,0.0000492,0.99511265,0.0000,12/03.9969/2012,2000,g 13.5,2.0
# From MPC 81470
P/2012 O1 (McNaught),e,7.5114,93.9879,236.8026,3.514024,0.1496225,0.60394766,190.3155,01/18.0/2016,2000,g 17.5,4.0
# From MPC 80899
P/2012 O2 (McNaught),e,24.5143,120.7525,183.4901,3.615238,0.1433834,0.53348023,187.2869,01/18.0/2016,2000,g 17.0,4.0
# From MPC 82720
P/2012 O3 (McNaught),e,16.5771,336.4081,344.7014,4.581340,0.1005114,0.64551642,125.9537,01/18.0/2016,2000,g 16.5,4.0
# From MPC 90767
